EUTELSAT 8 WEST B       
1 40875U 15039B   25214.40241243 -.00000056  00000+0  00000+0 0  9996
2 40875   0.0648  12.7303 0003618 118.6426 316.7264  1.00271354 36467
EUTELSAT 9B             
1 41310U 16005A   25214.26294788  .00000071  00000+0  00000+0 0  9997
2 41310   0.0380  68.5976 0001360  70.3888 275.7476  1.00272805 34917
EUTELSAT 65 WEST A      
1 41382U 16014A   25214.39105904 -.00000267  00000+0  00000+0 0  9999
2 41382   0.0489   1.6694 0002299 122.2304 262.9007  1.00273882 34333
EUTELSAT 117 WEST B     
1 41589U 16038B   25214.66625285 -.00000002  00000+0  00000+0 0  9990
2 41589   0.0006 133.2326 0000185 152.5845 148.5173  1.00269943 33514
EUTELSAT 172B           
1 42741U 17029B   25214.50461567  .00000004  00000+0  00000+0 0  9997
2 42741   0.0199 153.2132 0000383 289.8317 221.9591  1.00273882 30539
EUTELSAT 7C             
1 44334U 19034B   25214.26260120  .00000058  00000+0  00000+0 0  9999
2 44334   0.0732 189.3371 0003497 286.0391 297.2419  1.00271921  3635
EUTELSAT 5 WEST B       
1 44624U 19067A   25214.26017453 -.00000033  00000+0  00000+0 0  9990
2 44624   0.1006 305.3554 0003147 184.0094 270.3976  1.00271265 21231
EUTELSAT KONNECT        
1 45027U 20005B   25214.26260120  .00000058  00000+0  00000+0 0  9999
2 45027   0.0577  93.5327 0001154  92.0409 227.2507  1.00269693 21120
